TEVEL2-4
1 63213U 25052D   26198.68765830  .00009609  00000-0  27972-3 0  9992
2 63213  97.3859  95.1461 0003368  46.9378 313.2147 15.35621096 74797
TEVEL2-5
1 63214U 25052E   26197.66900195  .00011058  00000-0  32363-3 0  9996
2 63214  97.3862  94.0641 0003463  50.3372 309.8177 15.35411833 74632
TEVEL2-6
1 63215U 25052F   26198.65959542  .00009817  00000-0  28776-3 0  9990
2 63215  97.3864  95.0416 0003363  51.0715 309.0827 15.35395037 74781
TEVEL2-1
1 63217U 25052H   26198.50401060  .00009140  00000-0  27300-3 0  9994
2 63217  97.3833  94.4731 0004106  55.4900 304.6730 15.34820987 74748
TEVEL2-3
1 63218U 25052J   26198.62786326  .00008807  00000-0  26261-3 0  9993
2 63218  97.3840  94.6233 0003811  57.5215 302.6396 15.34886314 74764
TEVEL2-2
1 63219U 25052K   26198.43892551  .00009542  00000-0  28479-3 0  9991
2 63219  97.3834  94.4108 0004139  55.7304 304.4330 15.34831434 74738
TEVEL2-9
1 63237U 25052AD  26197.67279632  .00010133  00000-0  32238-3 0  9991
2 63237  97.3899  92.9536 0007557  53.0535 307.1398 15.32762164 74545
TEVEL2-7
1 63238U 25052AE  26198.17666353  .00008943  00000-0  28760-3 0  9999
2 63238  97.3898  93.3596 0007602  51.1945 308.9975 15.32453102 74618
TEVEL2-8
1 63239U 25052AF  26197.66282234  .00009609  00000-0  30904-3 0  9998
2 63239  97.3904  92.8233 0007711  54.0583 306.1374 15.32429153 74533
